[{"OBJECT_NAME":"ONEWEB-0664","OBJECT_ID":"2023-029AE","EPOCH":"2026-03-09T15:31:42.897792","MEAN_MOTION":13.20771965,"ECCENTRICITY":0.0001137,"INCLINATION":87.9162,"RA_OF_ASC_NODE":294.3685,"ARG_OF_PERICENTER":95.6788,"MEAN_ANOMALY":264.4474,"EPHEMERIS_TYPE":0,"CLASSIFICATION_TYPE":"U","NORAD_CAT_ID":55824,"ELEMENT_SET_NO":999,"REV_AT_EPOCH":14800,"BSTAR":-0.00082688,"MEAN_MOTION_DOT":-3.23e-6,"MEAN_MOTION_DDOT":0},{"OBJECT_NAME":"DELTA 1 DEB","OBJECT_ID":"1975-052MN","EPOCH":"2026-03-08T16:41:22.952256","MEAN_MOTION":13.30821048,"ECCENTRICITY":0.00680262,"INCLINATION":99.765,"RA_OF_ASC_NODE":217.5591,"ARG_OF_PERICENTER":234.866,"MEAN_ANOMALY":140.1754,"EPHEMERIS_TYPE":0,"CLASSIFICATION_TYPE":"U","NORAD_CAT_ID":42653,"ELEMENT_SET_NO":999,"REV_AT_EPOCH":59713,"BSTAR":0.00012393727,"MEAN_MOTION_DOT":1.7e-7,"MEAN_MOTION_DDOT":0}]
